PROGRESS-MS 32          
1 65586U 25204A   25340.86543100  .00013750  00000+0  25394-3 0  9995
2 65586  51.6304 171.5636 0003497 213.1314 146.9456 15.49374779   278
CYGNUS NG-23            
1 65616U 25208A   25340.86543100  .00013750  00000+0  25394-3 0  9993
2 65616  51.6304 171.5636 0003497 213.1314 146.9456 15.49374779   227
DRAGONFLY               
1 65729U 98067XH  25340.75777803  .00197078  00000+0  16006-2 0  9993
2 65729  51.6244 166.3400 0006463 240.1975 119.8380 15.69539731 12226
1998-067XK              
1 65731U 98067XK  25340.79568038  .00120927  00000+0  12267-2 0  9992
2 65731  51.6275 167.3560 0005614 209.7044 150.3633 15.64317080 12212
RSP-03                  
1 65732U 98067XL  25340.81065716  .00155052  00000+0  14177-2 0  9990
2 65732  51.6255 166.6987 0006436 212.9717 147.0878 15.66782346 12231
GHS-01                  
1 65733U 98067XM  25340.78287372  .00237688  00000+0  17414-2 0  9994
2 65733  51.6272 165.7632 0006898 241.1920 118.8385 15.71874043 12242
YOTSUBA-KULOVER         
1 65941U 98067XN  25340.81507665  .00090951  00000+0  11639-2 0  9992
2 65941  51.6278 169.7328 0001968 197.1439 162.9487 15.58441577  8934
BOTAN                   
1 65942U 98067XP  25340.76859027  .00129965  00000+0  14806-2 0  9996
2 65942  51.6270 169.4226 0003982 191.5132 168.5771 15.61316825  8936
E-KAGAKU-1              
1 65943U 98067XQ  25340.75088548  .00087541  00000+0  11231-2 0  9990
2 65943  51.6289 170.0575 0003024 170.5434 189.5616 15.58389180  8921
HRC MONOBLOCK CAMERA    
1 66052U 98067XR  25340.92720606  .00046263  00000+0  71615-3 0  9998
2 66052  51.6285 170.4765 0004021 160.7333 199.3810 15.53573464  7931
HTV-X1                  
1 66174U 25241A   25340.86543100  .00013750  00000+0  25394-3 0  9990
2 66174  51.6304 171.5636 0003497 213.1314 146.9456 15.49374779   519
SZ-21 MODULE            
1 66515U 25246C   25340.91373290  .00034334  00000+0  38292-3 0  9993
2 66515  41.4777  51.5754 0006163 227.7607 132.2710 15.62073048  3532
